{
  "norad_id": 67278,
  "name": "2025-313AG",
  "history": [
    {
      "epoch": "2026-03-28T21:09:45.924192Z",
      "apogee_km": 510.15228643956016,
      "perigee_km": 491.66388969906166,
      "latitude_deg": 2.8346243910454818e-05,
      "longitude_deg": 20.055286086971794,
      "height_km": 500.8948571695749,
      "semi_major_axis_km": 6879.045088069311,
      "eccentricity": 0.00134382,
      "inclination_deg": 97.3943,
      "raan_deg": 163.7925,
      "arg_perigee_deg": 289.6802,
      "mean_anomaly_deg": 70.2984,
      "mean_motion_rev_day": 15.21635136
    },
    {
      "epoch": "2026-03-29T05:03:14.493888Z",
      "apogee_km": 510.112270019702,
      "perigee_km": 491.6462387863821,
      "latitude_deg": -8.46803161681655e-05,
      "longitude_deg": -98.31482258164343,
      "height_km": 501.0546028332725,
      "semi_major_axis_km": 6879.016254403042,
      "eccentricity": 0.0013422,
      "inclination_deg": 97.3943,
      "raan_deg": 164.1155,
      "arg_perigee_deg": 288.4669,
      "mean_anomaly_deg": 71.5107,
      "mean_motion_rev_day": 15.21644703
    },
    {
      "epoch": "2026-03-30T04:43:39.504864Z",
      "apogee_km": 510.0118226615605,
      "perigee_km": 491.6339933713025,
      "latitude_deg": -5.616192471679505e-07,
      "longitude_deg": -93.42198599577343,
      "height_km": 501.5947590919154,
      "semi_major_axis_km": 6878.959908016431,
      "eccentricity": 0.0013358,
      "inclination_deg": 97.3943,
      "raan_deg": 165.0848,
      "arg_perigee_deg": 284.6772,
      "mean_anomaly_deg": 75.2983,
      "mean_motion_rev_day": 15.21663399
    }
  ]
}